ONEWEB-0229             
1 48779U 21045N   26020.28235915  .00000162  00000+0  39685-3 0  9994
2 48779  87.9009 288.7070 0001561  68.5940 291.5357 13.15550097224968
ONEWEB-0228             
1 48780U 21045P   26020.23970014 -.00000294  00000+0 -81529-3 0  9999
2 48780  87.9013 288.7023 0001471  72.1360 287.9931 13.15548579224879
ONEWEB-0232             
1 48781U 21045Q   26020.29027397 -.00000043  00000+0 -14874-3 0  9994
2 48781  87.9022 288.6876 0001559  73.7080 286.4222 13.15546982225209
ONEWEB-0231             
1 48782U 21045R   26020.26809365  .00000182  00000+0  45033-3 0  9998
2 48782  87.9001 288.7275 0001417  66.8569 293.2711 13.15549014224891
ONEWEB-0234             
1 48783U 21045S   26020.22991878 -.00000081  00000+0 -24854-3 0  9994
2 48783  87.9009 288.7110 0001698 104.5344 255.5975 13.15546403225028
ONEWEB-0238             
1 48784U 21045T   26020.23020009 -.00000100  00000+0 -29969-3 0  9999
2 48784  87.9011 288.7043 0001619  92.0366 268.0949 13.15550530224929
ONEWEB-0240             
1 48785U 21045U   26020.25146435  .00000112  00000+0  26477-3 0  9996
2 48785  87.9015 288.6984 0001212  76.4953 283.6313 13.15549058224958
ONEWEB-0246             
1 48786U 21045V   26020.24591555  .00000065  00000+0  13742-3 0  9991
2 48786  87.9014 288.7092 0001575  69.6267 290.5032 13.15549428224825
